PANDORA
1 67395U 80229J   26041.99964120  .00000000  00000-0  37770-3 0    00
2 67395  97.7999  42.6595 0005254 165.9787 121.1900 14.87784957    02
